ONEWEB-0275             
1 48993U 21060AC  26204.47995252  .00000073  00000+0  15846-3 0  9995
2 48993  87.9075 221.5661 0001232 102.7016 257.4253 13.16588501244331
ONEWEB-0276             
1 48994U 21060AD  26204.43723662  .00000044  00000+0  82347-4 0  9995
2 48994  87.9077 221.5741 0001897  94.2069 265.9278 13.16594461244347
ONEWEB-0277             
1 48995U 21060AE  26204.44989813 -.00000035  00000+0 -12401-3 0  9994
2 48995  87.9073 221.5782 0002173  95.4863 264.6515 13.16595652244334
ONEWEB-0278             
1 48996U 21060AF  26204.06041849  .00000088  00000+0  19725-3 0  9993
2 48996  87.9080 221.6481 0002132  86.5693 273.5682 13.16594494244413
ONEWEB-0279             
1 48997U 21060AG  26204.44832013 -.00000039  00000+0 -13691-3 0  9991
2 48997  87.9079 221.5690 0002116 100.0007 260.1362 13.16594075244395
ONEWEB-0280             
1 48998U 21060AH  26204.46334579 -.00000039  00000+0 -13528-3 0  9997
2 48998  87.9078 221.5703 0002402  90.5403 269.6003 13.16595536244334
ONEWEB-0281             
1 48999U 21060AJ  26204.46888607  .00000012  00000+0 -32341-5 0  9990
2 48999  87.9078 221.5649 0001906  92.6374 267.4976 13.16592291244400
ONEWEB-0282             
1 49000U 21060AK  26204.34697989  .00000129  00000+0  30406-3 0  9998
2 49000  87.9075 221.5965 0002166  93.5643 266.5736 13.16595516244362
ONEWEB-0283             
1 49001U 21060AL  26204.10791209  .00000121  00000+0  28311-3 0  9997
2 49001  87.9070 221.6433 0002050  97.5384 262.5980 13.16593501244344
ONEWEB-0284             
1 49002U 21060AM  26204.32957549  .00000046  00000+0  87254-4 0  9991
2 49002  87.9075 221.5932 0002329  87.6699 272.4699 13.16593842244357
ONEWEB-0285             
1 49075U 21075A   26204.34915747 -.00000313  00000+0 -90675-3 0  9992
2 49075  87.8978 343.4746 0001772  93.2699 266.8633 13.12447045239953
ONEWEB-0286             
1 49076U 21075B   26204.33123590 -.00000283  00000+0 -82187-3 0  9994
2 49076  87.8975 343.4912 0001649  92.8629 267.2688 13.12442236239308
ONEWEB-0287             
1 49077U 21075C   26204.38820799  .00000026  00000+0  34945-4 0  9998
2 49077  87.9153 358.6646 0001681  80.6174 279.5148 13.17648610238390
ONEWEB-0288             
1 49078U 21075D   26204.38389824  .00000374  00000+0  10037-2 0  9998
2 49078  87.8983 343.4602 0001865  86.8082 273.3260 13.12442256239936
ONEWEB-0289             
1 49079U 21075E   26204.42701394 -.00000137  00000+0 -38677-3 0  9994
2 49079  87.9158 358.6758 0002266  92.4338 267.7053 13.17648587238975
ONEWEB-0290             
1 49080U 21075F   26203.86846302  .00000024  00000+0  27363-4 0  9996
2 49080  87.9164 358.7598 0002325  94.8479 265.2918 13.17648046238316
ONEWEB-0291             
1 49081U 21075G   26204.38484622  .00000056  00000+0  11048-3 0  9995
2 49081  87.9153 358.6626 0001964  84.0521 276.0834 13.17650125238377
ONEWEB-0293             
1 49082U 21075H   26204.41014045  .00000037  00000+0  61097-4 0  9997
2 49082  87.9154 358.6603 0001991  92.3925 267.7434 13.17647666238407
ONEWEB-0294             
1 49083U 21075J   26204.61938217  .00000298  00000+0  79412-3 0  9994
2 49083  87.8987 343.4182 0002169  95.5359 264.6017 13.12442251239355
ONEWEB-0295             
1 49084U 21075K   26204.40929219  .00000063  00000+0  12868-3 0  9996
2 49084  87.9152 358.6640 0001828  84.6648 275.4692 13.17650207238365
ONEWEB-0296             
1 49085U 21075L   26204.37034315  .00000371  00000+0  99655-3 0  9998
2 49085  87.8981 343.4757 0001893  86.5545 273.5800 13.12443942239323
ONEWEB-0297             
1 49086U 21075M   26204.62954173 -.00000087  00000+0 -27619-3 0  9997
2 49086  87.8977 343.4312 0001822  92.6484 267.4853 13.12442169239968
ONEWEB-0298             
1 49087U 21075N   26204.41367202  .00000084  00000+0  18244-3 0  9995
2 49087  87.9154 358.6618 0001724  93.9294 266.2035 13.17649980238398
ONEWEB-0299             
1 49088U 21075P   26204.41521148  .00000076  00000+0  16178-3 0  9992
2 49088  87.9166 358.6451 0001730  89.0691 271.0639 13.17648290238376
ONEWEB-0300             
1 49089U 21075Q   26204.31697423  .00000110  00000+0  27172-3 0  9997
2 49089  87.8983 343.4754 0001501 103.6990 256.4306 13.12441978239943
ONEWEB-0301             
1 49090U 21075R   26204.37711588  .00000449  00000+0  12124-2 0  9999
2 49090  87.8978 343.4615 0001614 105.9075 254.2232 13.12443315239311
ONEWEB-0302             
1 49091U 21075S   26204.36358528  .00000269  00000+0  71190-3 0  9999
2 49091  87.8975 343.4759 0002105  91.0858 269.0512 13.12444988239297
ONEWEB-0304             
1 49092U 21075T   26204.38990186  .00000030  00000+0  43743-4 0  9994
2 49092  87.9150 358.6690 0001807  88.8343 271.2995 13.17647960238342
ONEWEB-0305             
1 49093U 21075U   26204.38315051  .00000063  00000+0  12958-3 0  9996
2 49093  87.9164 358.6579 0001684  81.6357 278.4966 13.17648266238373
ONEWEB-0308             
1 49094U 21075V   26204.35678359  .00000066  00000+0  14895-3 0  9992
2 49094  87.8981 343.4704 0001882  97.4318 262.7024 13.12444426239306
