OBJECT_NAME,OBJECT_ID,EPOCH,MEAN_MOTION,ECCENTRICITY,INCLINATION,RA_OF_ASC_NODE,ARG_OF_PERICENTER,MEAN_ANOMALY,EPHEMERIS_TYPE,CLASSIFICATION_TYPE,NORAD_CAT_ID,ELEMENT_SET_NO,REV_AT_EPOCH,BSTAR,MEAN_MOTION_DOT,MEAN_MOTION_DDOT
ONEWEB-0275,2021-060AC,2026-07-23T11:31:07.897728,13.16588501,.0001232,87.9075,221.5661,102.7016,257.4253,0,U,48993,999,24433,.1584571E-3,.73E-6,0
ONEWEB-0276,2021-060AD,2026-07-23T10:29:37.243968,13.16594461,.00018972,87.9077,221.5741,94.2069,265.9278,0,U,48994,999,24434,.82346926E-4,.44E-6,0
ONEWEB-0277,2021-060AE,2026-07-23T10:47:51.198432,13.16595652,.00021731,87.9073,221.5782,95.4863,264.6515,0,U,48995,999,24433,-.12401057E-3,-.35E-6,0
ONEWEB-0278,2021-060AF,2026-07-23T01:27:00.157536,13.16594494,.00021323,87.9080,221.6481,86.5693,273.5682,0,U,48996,999,24441,.19724581E-3,.88E-6,0
ONEWEB-0279,2021-060AG,2026-07-23T10:45:34.859232,13.16594075,.00021161,87.9079,221.5690,100.0007,260.1362,0,U,48997,999,24439,-.13691274E-3,-.39E-6,0
ONEWEB-0280,2021-060AH,2026-07-23T11:07:13.076256,13.16595536,.00024027,87.9078,221.5703,90.5403,269.6003,0,U,48998,999,24433,-.13528413E-3,-.39E-6,0
ONEWEB-0281,2021-060AJ,2026-07-23T11:15:11.756448,13.16592291,.00019062,87.9078,221.5649,92.6374,267.4976,0,U,48999,999,24440,-.3234107E-5,.12E-6,0
ONEWEB-0282,2021-060AK,2026-07-23T08:19:39.062496,13.16595516,.00021661,87.9075,221.5965,93.5643,266.5736,0,U,49000,999,24436,.30405888E-3,.129E-5,0
ONEWEB-0283,2021-060AL,2026-07-23T02:35:23.604576,13.16593501,.00020506,87.9070,221.6433,97.5384,262.5980,0,U,49001,999,24434,.28311009E-3,.121E-5,0
ONEWEB-0284,2021-060AM,2026-07-23T07:54:35.322336,13.16593842,.00023299,87.9075,221.5932,87.6699,272.4699,0,U,49002,999,24435,.87253529E-4,.46E-6,0
ONEWEB-0285,2021-075A,2026-07-23T08:22:47.205408,13.12447045,.00017728,87.8978,343.4746,93.2699,266.8633,0,U,49075,999,23995,-.9067498E-3,-.313E-5,0
ONEWEB-0286,2021-075B,2026-07-23T07:56:58.781760,13.12442236,.00016491,87.8975,343.4912,92.8629,267.2688,0,U,49076,999,23930,-.8218679E-3,-.283E-5,0
ONEWEB-0287,2021-075C,2026-07-23T09:19:01.170336,13.17648610,.00016813,87.9153,358.6646,80.6174,279.5148,0,U,49077,999,23839,.34945469E-4,.26E-6,0
ONEWEB-0288,2021-075D,2026-07-23T09:12:48.807936,13.12442256,.0001865,87.8983,343.4602,86.8082,273.3260,0,U,49078,999,23993,.1003685E-2,.374E-5,0
ONEWEB-0289,2021-075E,2026-07-23T10:14:54.004416,13.17648587,.00022666,87.9158,358.6758,92.4338,267.7053,0,U,49079,999,23897,-.38676609E-3,-.137E-5,0
ONEWEB-0290,2021-075F,2026-07-22T20:50:35.204928,13.17648046,.00023259,87.9164,358.7598,94.8479,265.2918,0,U,49080,999,23831,.27362812E-4,.24E-6,0
ONEWEB-0291,2021-075G,2026-07-23T09:14:10.713408,13.17650125,.00019648,87.9153,358.6626,84.0521,276.0834,0,U,49081,999,23837,.11048273E-3,.56E-6,0
ONEWEB-0293,2021-075H,2026-07-23T09:50:36.134880,13.17647666,.00019917,87.9154,358.6603,92.3925,267.7434,0,U,49082,999,23840,.61096739E-4,.37E-6,0
ONEWEB-0294,2021-075J,2026-07-23T14:51:54.619488,13.12442251,.00021692,87.8987,343.4182,95.5359,264.6017,0,U,49083,999,23935,.79411953E-3,.298E-5,0
ONEWEB-0295,2021-075K,2026-07-23T09:49:22.845216,13.17650207,.0001828,87.9152,358.6640,84.6648,275.4692,0,U,49084,999,23836,.128682E-3,.63E-6,0
ONEWEB-0296,2021-075L,2026-07-23T08:53:17.648160,13.12443942,.00018937,87.8981,343.4757,86.5545,273.5800,0,U,49085,999,23932,.99654602E-3,.371E-5,0
ONEWEB-0297,2021-075M,2026-07-23T15:06:32.405472,13.12442169,.0001822,87.8977,343.4312,92.6484,267.4853,0,U,49086,999,23996,-.27619228E-3,-.87E-6,0
ONEWEB-0298,2021-075N,2026-07-23T09:55:41.262528,13.17649980,.00017248,87.9154,358.6618,93.9294,266.2035,0,U,49087,999,23839,.18244055E-3,.84E-6,0
ONEWEB-0299,2021-075P,2026-07-23T09:57:54.271872,13.17648290,.00017304,87.9166,358.6451,89.0691,271.0639,0,U,49088,999,23837,.16178019E-3,.76E-6,0
ONEWEB-0300,2021-075Q,2026-07-23T07:36:26.573472,13.12441978,.00015011,87.8983,343.4754,103.6990,256.4306,0,U,49089,999,23994,.27171543E-3,.11E-5,0
ONEWEB-0301,2021-075R,2026-07-23T09:03:02.812032,13.12443315,.00016143,87.8978,343.4615,105.9075,254.2232,0,U,49090,999,23931,.12124307E-2,.449E-5,0
ONEWEB-0302,2021-075S,2026-07-23T08:43:33.768192,13.12444988,.0002105,87.8975,343.4759,91.0858,269.0512,0,U,49091,999,23929,.71189541E-3,.269E-5,0
ONEWEB-0304,2021-075T,2026-07-23T09:21:27.520704,13.17647960,.00018078,87.9150,358.6690,88.8343,271.2995,0,U,49092,999,23834,.43742535E-4,.3E-6,0
ONEWEB-0305,2021-075U,2026-07-23T09:11:44.204064,13.17648266,.00016847,87.9164,358.6579,81.6357,278.4966,0,U,49093,999,23837,.12957954E-3,.63E-6,0
ONEWEB-0308,2021-075V,2026-07-23T08:33:46.102176,13.12444426,.00018829,87.8981,343.4704,97.4318,262.7024,0,U,49094,999,23930,.14894932E-3,.66E-6,0
